[{"OBJECT_NAME":"OBJECT J","OBJECT_ID":"2025-155J","EPOCH":"2026-03-09T22:09:22.347648","MEAN_MOTION":15.2758258,"ECCENTRICITY":0.00088188,"INCLINATION":97.4475,"RA_OF_ASC_NODE":37.3123,"ARG_OF_PERICENTER":150.071,"MEAN_ANOMALY":210.1035,"EPHEMERIS_TYPE":0,"CLASSIFICATION_TYPE":"U","NORAD_CAT_ID":64884,"ELEMENT_SET_NO":999,"REV_AT_EPOCH":6559,"BSTAR":0.00051444498,"MEAN_MOTION_DOT":0.00013827,"MEAN_MOTION_DDOT":0},{"OBJECT_NAME":"STARLINK-35514","OBJECT_ID":"2025-265V","EPOCH":"2026-03-09T21:51:41.463648","MEAN_MOTION":15.27594741,"ECCENTRICITY":0.00012591,"INCLINATION":43.0012,"RA_OF_ASC_NODE":276.9943,"ARG_OF_PERICENTER":286.7395,"MEAN_ANOMALY":73.3319,"EPHEMERIS_TYPE":0,"CLASSIFICATION_TYPE":"U","NORAD_CAT_ID":66535,"ELEMENT_SET_NO":999,"REV_AT_EPOCH":1714,"BSTAR":0.0012764367,"MEAN_MOTION_DOT":0.00035045,"MEAN_MOTION_DDOT":0}]
